{
    "links": {
        "self": "http://www.neowsapp.com/rest/v1/neo/3769914?api_key=iIulBulltgU6a56xZRHN4H3l9WmuAYTsLGpBGhQ2"
    },
    "id": "3769914",
    "neo_reference_id": "3769914",
    "name": "(2017 DQ36)",
    "designation": "2017 DQ36",
    "nasa_jpl_url": "http://ssd.jpl.nasa.gov/sbdb.cgi?sstr=3769914",
    "absolute_magnitude_h": 19.3,
    "estimated_diameter": {
        "kilometers": {
            "estimated_diameter_min": 0.3669061375,
            "estimated_diameter_max": 0.8204270649
        },
        "meters": {
            "estimated_diameter_min": 366.9061375314,
            "estimated_diameter_max": 820.4270648822
        },
        "miles": {
            "estimated_diameter_min": 0.2279848336,
            "estimated_diameter_max": 0.5097895857
        },
        "feet": {
            "estimated_diameter_min": 1203.7603322587,
            "estimated_diameter_max": 2691.6899315481
        }
    },
    "is_potentially_hazardous_asteroid": false,
    "close_approach_data": [
        {
            "close_approach_date": "2017-01-24",
            "close_approach_date_full": "2017-Jan-24 09:13",
            "epoch_date_close_approach": 1485249180000,
            "relative_velocity": {
                "kilometers_per_second": "40.575989533",
                "kilometers_per_hour": "146073.5623188529",
                "miles_per_hour": "90764.4309864006"
            },
            "miss_distance": {
                "astronomical": "0.3590907249",
                "lunar": "139.6862919861",
                "kilometers": "53719207.581795963",
                "miles": "33379567.7602037694"
            },
            "orbiting_body": "Earth"
        }
    ],
    "orbital_data": {
        "orbit_id": "14",
        "orbit_determination_date": "2017-04-06 08:19:57",
        "first_observation_date": "2017-02-22",
        "last_observation_date": "2017-03-23",
        "data_arc_in_days": 29,
        "observations_used": 58,
        "orbit_uncertainty": "8",
        "minimum_orbit_intersection": ".0537147",
        "jupiter_tisserand_invariant": "3.004",
        "epoch_osculation": "2457811.5",
        "eccentricity": ".7914435304738436",
        "semi_major_axis": "2.190306232697951",
        "inclination": "37.62578221683393",
        "ascending_node_longitude": "276.2210271879052",
        "orbital_period": "1184.01085863114",
        "perihelion_distance": ".4568025350726206",
        "perihelion_argument": "98.34578596017995",
        "aphelion_distance": "3.923809930323282",
        "perihelion_time": "2457743.604933001405",
        "mean_anomaly": "20.64358104599849",
        "mean_motion": ".3040512655569761",
        "equinox": "J2000",
        "orbit_class": {
            "orbit_class_type": "APO",
            "orbit_class_description": "Near-Earth asteroid orbits which cross the Earth’s orbit similar to that of 1862 Apollo",
            "orbit_class_range": "a (semi-major axis) > 1.0 AU; q (perihelion) < 1.017 AU"
        }
    },
    "is_sentry_object": false
}